[
  {
    "name": "ONEWEB-0340",
    "noradId": "49206",
    "line1": "1 49206U 21083W   26200.30515431 -.00000127  00000+0 -35415-3 0  9999",
    "line2": "2 49206  87.9202 329.0701 0001842  94.2727 265.8616 13.18686263234208"
  },
  {
    "name": "ONEWEB-0341",
    "noradId": "49207",
    "line1": "1 49207U 21083X   26200.31189271 -.00000128  00000+0 -35771-3 0  9996",
    "line2": "2 49207  87.9200 329.0697 0002226  89.2674 270.8713 13.18686036234227"
  },
  {
    "name": "ONEWEB-0342",
    "noradId": "49208",
    "line1": "1 49208U 21083Y   26200.24455494 -.00012002  00000+0 -29627-1 0  9997",
    "line2": "2 49208  87.9190 268.0483 0002133 105.7539 254.3830 13.20684828241014"
  },
  {
    "name": "ONEWEB-0343",
    "noradId": "49209",
    "line1": "1 49209U 21083Z   26200.32032577  .00000076  00000+0  16006-3 0  9995",
    "line2": "2 49209  87.9194 329.0673 0002298 104.2060 255.9327 13.18687710234271"
  },
  {
    "name": "ONEWEB-0344",
    "noradId": "49210",
    "line1": "1 49210U 21083AA  26200.26678445 -.00000229  00000+0 -66336-3 0  9993",
    "line2": "2 49210  87.8984 313.8544 0002168  90.2973 269.8404 13.13469121235102"
  },
  {
    "name": "ONEWEB-0345",
    "noradId": "49211",
    "line1": "1 49211U 21083AB  26200.02979660 -.00000187  00000+0 -54832-3 0  9992",
    "line2": "2 49211  87.8990 313.8874 0002168  94.3976 265.7401 13.13469679235081"
  },
  {
    "name": "ONEWEB-0346",
    "noradId": "49212",
    "line1": "1 49212U 21083AC  26200.31695197  .00000048  00000+0  89246-4 0  9997",
    "line2": "2 49212  87.9191 329.0670 0001399  84.6456 275.4836 13.18687476234215"
  },
  {
    "name": "ONEWEB-0348",
    "noradId": "49213",
    "line1": "1 49213U 21083AD  26200.23437809  .00000021  00000+0  19605-4 0  9996",
    "line2": "2 49213  87.9183 268.0553 0001980  82.8486 277.2872 13.20771809241044"
  },
  {
    "name": "ONEWEB-0350",
    "noradId": "49214",
    "line1": "1 49214U 21083AE  26200.27707619 -.00000125  00000+0 -37670-3 0  9998",
    "line2": "2 49214  87.8984 313.8426 0001799 133.3746 226.7533 13.13472580235143"
  },
  {
    "name": "ONEWEB-0351",
    "noradId": "49215",
    "line1": "1 49215U 21083AF  26200.22750679  .00000152  00000+0  34076-3 0  9993",
    "line2": "2 49215  87.9179 268.0554 0002699 100.7944 259.3493 13.20770616241000"
  },
  {
    "name": "ONEWEB-0352",
    "noradId": "49216",
    "line1": "1 49216U 21083AG  26200.24817634  .00000081  00000+0  18744-3 0  9996",
    "line2": "2 49216  87.8981 313.8529 0002325 105.8948 254.2438 13.13469057235235"
  },
  {
    "name": "ONEWEB-0354",
    "noradId": "49217",
    "line1": "1 49217U 21083AH  26200.17882320  .00000059  00000+0  11430-3 0  9993",
    "line2": "2 49217  87.9183 268.0641 0002084  87.3155 272.8217 13.20771441241030"
  },
  {
    "name": "ONEWEB-0355",
    "noradId": "49218",
    "line1": "1 49218U 21083AJ  26200.04924474 -.00000153  00000+0 -45419-3 0  9998",
    "line2": "2 49218  87.8977 313.8932 0002150 100.1491 259.9881 13.13468317235082"
  },
  {
    "name": "ONEWEB-0357",
    "noradId": "49219",
    "line1": "1 49219U 21083AK  26200.17545106  .00000067  00000+0  13225-3 0  9996",
    "line2": "2 49219  87.9182 268.0586 0002249 100.9636 259.1750 13.20770554241032"
  },
  {
    "name": "ONEWEB-0332",
    "noradId": "49279",
    "line1": "1 49279U 21090A   26200.18810265 -.00000146  00000+0 -42931-3 0  9998",
    "line2": "2 49279  87.8964 283.3330 0002015 105.9187 254.2165 13.14503248231783"
  },
  {
    "name": "ONEWEB-0347",
    "noradId": "49280",
    "line1": "1 49280U 21090B   26200.24111069  .00000077  00000+0  15642-3 0  9993",
    "line2": "2 49280  87.9181 268.0532 0002039 105.5098 254.6260 13.20770007235278"
  }
]