{"fetched_at":"2026-07-19T17:31:09.790Z","source":"https://celestrak.org/NORAD/elements/gp.php?GROUP=oneweb&FORMAT=JSON","constellation":"oneweb","records":[{"OBJECT_NAME":"ONEWEB-0340","OBJECT_ID":"2021-083W","EPOCH":"2026-07-19T07:19:25.332384","CLASSIFICATION_TYPE":"U","MEAN_MOTION":13.18686263,"ECCENTRICITY":0.00018427,"INCLINATION":87.9202,"RA_OF_ASC_NODE":329.0701,"ARG_OF_PERICENTER":94.2727,"MEAN_ANOMALY":265.8616,"EPHEMERIS_TYPE":0,"NORAD_CAT_ID":49206,"ELEMENT_SET_NO":999,"REV_AT_EPOCH":23420,"BSTAR":-0.0003541492,"MEAN_MOTION_DOT":-0.00000127,"MEAN_MOTION_DDOT":0},{"OBJECT_NAME":"ONEWEB-0341","OBJECT_ID":"2021-083X","EPOCH":"2026-07-19T07:29:07.530144","CLASSIFICATION_TYPE":"U","MEAN_MOTION":13.18686036,"ECCENTRICITY":0.00022269,"INCLINATION":87.92,"RA_OF_ASC_NODE":329.0697,"ARG_OF_PERICENTER":89.2674,"MEAN_ANOMALY":270.8713,"EPHEMERIS_TYPE":0,"NORAD_CAT_ID":49207,"ELEMENT_SET_NO":999,"REV_AT_EPOCH":23422,"BSTAR":-0.00035770695,"MEAN_MOTION_DOT":-0.00000128,"MEAN_MOTION_DDOT":0},{"OBJECT_NAME":"ONEWEB-0342","OBJECT_ID":"2021-083Y","EPOCH":"2026-07-19T05:52:09.546816","CLASSIFICATION_TYPE":"U","MEAN_MOTION":13.20684828,"ECCENTRICITY":0.00021336,"INCLINATION":87.919,"RA_OF_ASC_NODE":268.0483,"ARG_OF_PERICENTER":105.7539,"MEAN_ANOMALY":254.383,"EPHEMERIS_TYPE":0,"NORAD_CAT_ID":49208,"ELEMENT_SET_NO":999,"REV_AT_EPOCH":24101,"BSTAR":-0.029627401,"MEAN_MOTION_DOT":-0.00012002,"MEAN_MOTION_DDOT":0},{"OBJECT_NAME":"ONEWEB-0343","OBJECT_ID":"2021-083Z","EPOCH":"2026-07-19T07:41:16.146528","CLASSIFICATION_TYPE":"U","MEAN_MOTION":13.1868771,"ECCENTRICITY":0.00022982,"INCLINATION":87.9194,"RA_OF_ASC_NODE":329.0673,"ARG_OF_PERICENTER":104.206,"MEAN_ANOMALY":255.9327,"EPHEMERIS_TYPE":0,"NORAD_CAT_ID":49209,"ELEMENT_SET_NO":999,"REV_AT_EPOCH":23427,"BSTAR":0.00016006093,"MEAN_MOTION_DOT":7.6e-7,"MEAN_MOTION_DDOT":0},{"OBJECT_NAME":"ONEWEB-0344","OBJECT_ID":"2021-083AA","EPOCH":"2026-07-19T06:24:10.176480","CLASSIFICATION_TYPE":"U","MEAN_MOTION":13.13469121,"ECCENTRICITY":0.0002168,"INCLINATION":87.8984,"RA_OF_ASC_NODE":313.8544,"ARG_OF_PERICENTER":90.2973,"MEAN_ANOMALY":269.8404,"EPHEMERIS_TYPE":0,"NORAD_CAT_ID":49210,"ELEMENT_SET_NO":999,"REV_AT_EPOCH":23510,"BSTAR":-0.00066335713,"MEAN_MOTION_DOT":-0.00000229,"MEAN_MOTION_DDOT":0},{"OBJECT_NAME":"ONEWEB-0345","OBJECT_ID":"2021-083AB","EPOCH":"2026-07-19T00:42:54.426240","CLASSIFICATION_TYPE":"U","MEAN_MOTION":13.13469679,"ECCENTRICITY":0.0002168,"INCLINATION":87.899,"RA_OF_ASC_NODE":313.8874,"ARG_OF_PERICENTER":94.3976,"MEAN_ANOMALY":265.7401,"EPHEMERIS_TYPE":0,"NORAD_CAT_ID":49211,"ELEMENT_SET_NO":999,"REV_AT_EPOCH":23508,"BSTAR":-0.00054832113,"MEAN_MOTION_DOT":-0.00000187,"MEAN_MOTION_DDOT":0},{"OBJECT_NAME":"ONEWEB-0346","OBJECT_ID":"2021-083AC","EPOCH":"2026-07-19T07:36:24.650208","CLASSIFICATION_TYPE":"U","MEAN_MOTION":13.18687476,"ECCENTRICITY":0.00013993,"INCLINATION":87.9191,"RA_OF_ASC_NODE":329.067,"ARG_OF_PERICENTER":84.6456,"MEAN_ANOMALY":275.4836,"EPHEMERIS_TYPE":0,"NORAD_CAT_ID":49212,"ELEMENT_SET_NO":999,"REV_AT_EPOCH":23421,"BSTAR":0.000089245735,"MEAN_MOTION_DOT":4.8e-7,"MEAN_MOTION_DDOT":0},{"OBJECT_NAME":"ONEWEB-0348","OBJECT_ID":"2021-083AD","EPOCH":"2026-07-19T05:37:30.266976","CLASSIFICATION_TYPE":"U","MEAN_MOTION":13.20771809,"ECCENTRICITY":0.00019802,"INCLINATION":87.9183,"RA_OF_ASC_NODE":268.0553,"ARG_OF_PERICENTER":82.8486,"MEAN_ANOMALY":277.2872,"EPHEMERIS_TYPE":0,"NORAD_CAT_ID":49213,"ELEMENT_SET_NO":999,"REV_AT_EPOCH":24104,"BSTAR":0.000019605287,"MEAN_MOTION_DOT":2.1e-7,"MEAN_MOTION_DDOT":0},{"OBJECT_NAME":"ONEWEB-0350","OBJECT_ID":"2021-083AE","EPOCH":"2026-07-19T06:38:59.382816","CLASSIFICATION_TYPE":"U","MEAN_MOTION":13.1347258,"ECCENTRICITY":0.0001799,"INCLINATION":87.8984,"RA_OF_ASC_NODE":313.8426,"ARG_OF_PERICENTER":133.3746,"MEAN_ANOMALY":226.7533,"EPHEMERIS_TYPE":0,"NORAD_CAT_ID":49214,"ELEMENT_SET_NO":999,"REV_AT_EPOCH":23514,"BSTAR":-0.00037670241,"MEAN_MOTION_DOT":-0.00000125,"MEAN_MOTION_DDOT":0},{"OBJECT_NAME":"ONEWEB-0351","OBJECT_ID":"2021-083AF","EPOCH":"2026-07-19T05:27:36.586656","CLASSIFICATION_TYPE":"U","MEAN_MOTION":13.20770616,"ECCENTRICITY":0.00026996,"INCLINATION":87.9179,"RA_OF_ASC_NODE":268.0554,"ARG_OF_PERICENTER":100.7944,"MEAN_ANOMALY":259.3493,"EPHEMERIS_TYPE":0,"NORAD_CAT_ID":49215,"ELEMENT_SET_NO":999,"REV_AT_EPOCH":24100,"BSTAR":0.00034075611,"MEAN_MOTION_DOT":0.00000152,"MEAN_MOTION_DDOT":0},{"OBJECT_NAME":"ONEWEB-0352","OBJECT_ID":"2021-083AG","EPOCH":"2026-07-19T05:57:22.435776","CLASSIFICATION_TYPE":"U","MEAN_MOTION":13.13469057,"ECCENTRICITY":0.00023251,"INCLINATION":87.8981,"RA_OF_ASC_NODE":313.8529,"ARG_OF_PERICENTER":105.8948,"MEAN_ANOMALY":254.2438,"EPHEMERIS_TYPE":0,"NORAD_CAT_ID":49216,"ELEMENT_SET_NO":999,"REV_AT_EPOCH":23523,"BSTAR":0.0001874431,"MEAN_MOTION_DOT":8.1e-7,"MEAN_MOTION_DDOT":0},{"OBJECT_NAME":"ONEWEB-0354","OBJECT_ID":"2021-083AH","EPOCH":"2026-07-19T04:17:30.324480","CLASSIFICATION_TYPE":"U","MEAN_MOTION":13.20771441,"ECCENTRICITY":0.00020845,"INCLINATION":87.9183,"RA_OF_ASC_NODE":268.0641,"ARG_OF_PERICENTER":87.3155,"MEAN_ANOMALY":272.8217,"EPHEMERIS_TYPE":0,"NORAD_CAT_ID":49217,"ELEMENT_SET_NO":999,"REV_AT_EPOCH":24103,"BSTAR":0.00011429556,"MEAN_MOTION_DOT":5.9e-7,"MEAN_MOTION_DDOT":0},{"OBJECT_NAME":"ONEWEB-0355","OBJECT_ID":"2021-083AJ","EPOCH":"2026-07-19T01:10:54.745536","CLASSIFICATION_TYPE":"U","MEAN_MOTION":13.13468317,"ECCENTRICITY":0.000215,"INCLINATION":87.8977,"RA_OF_ASC_NODE":313.8932,"ARG_OF_PERICENTER":100.1491,"MEAN_ANOMALY":259.9881,"EPHEMERIS_TYPE":0,"NORAD_CAT_ID":49218,"ELEMENT_SET_NO":999,"REV_AT_EPOCH":23508,"BSTAR":-0.00045418709,"MEAN_MOTION_DOT":-0.00000153,"MEAN_MOTION_DDOT":0},{"OBJECT_NAME":"ONEWEB-0357","OBJECT_ID":"2021-083AK","EPOCH":"2026-07-19T04:12:38.971584","CLASSIFICATION_TYPE":"U","MEAN_MOTION":13.20770554,"ECCENTRICITY":0.00022498,"INCLINATION":87.9182,"RA_OF_ASC_NODE":268.0586,"ARG_OF_PERICENTER":100.9636,"MEAN_ANOMALY":259.175,"EPHEMERIS_TYPE":0,"NORAD_CAT_ID":49219,"ELEMENT_SET_NO":999,"REV_AT_EPOCH":24103,"BSTAR":0.00013225317,"MEAN_MOTION_DOT":6.7e-7,"MEAN_MOTION_DDOT":0},{"OBJECT_NAME":"ONEWEB-0332","OBJECT_ID":"2021-090A","EPOCH":"2026-07-19T04:30:52.068960","CLASSIFICATION_TYPE":"U","MEAN_MOTION":13.14503248,"ECCENTRICITY":0.00020156,"INCLINATION":87.8964,"RA_OF_ASC_NODE":283.333,"ARG_OF_PERICENTER":105.9187,"MEAN_ANOMALY":254.2165,"EPHEMERIS_TYPE":0,"NORAD_CAT_ID":49279,"ELEMENT_SET_NO":999,"REV_AT_EPOCH":23178,"BSTAR":-0.00042931057,"MEAN_MOTION_DOT":-0.00000146,"MEAN_MOTION_DDOT":0},{"OBJECT_NAME":"ONEWEB-0347","OBJECT_ID":"2021-090B","EPOCH":"2026-07-19T05:47:11.963616","CLASSIFICATION_TYPE":"U","MEAN_MOTION":13.20770007,"ECCENTRICITY":0.00020393,"INCLINATION":87.9181,"RA_OF_ASC_NODE":268.0532,"ARG_OF_PERICENTER":105.5098,"MEAN_ANOMALY":254.626,"EPHEMERIS_TYPE":0,"NORAD_CAT_ID":49280,"ELEMENT_SET_NO":999,"REV_AT_EPOCH":23527,"BSTAR":0.00015642159,"MEAN_MOTION_DOT":7.7e-7,"MEAN_MOTION_DDOT":0}]}
